[{"OBJECT_NAME":"HULIANWANG DIGUI-145","OBJECT_ID":"2026-007J","EPOCH":"2026-03-10T02:51:52.961472","MEAN_MOTION":13.36587384,"ECCENTRICITY":9.506e-5,"INCLINATION":50.0078,"RA_OF_ASC_NODE":80.9138,"ARG_OF_PERICENTER":330.3755,"MEAN_ANOMALY":29.7067,"EPHEMERIS_TYPE":0,"CLASSIFICATION_TYPE":"U","NORAD_CAT_ID":67443,"ELEMENT_SET_NO":999,"REV_AT_EPOCH":761,"BSTAR":0.00012980376,"MEAN_MOTION_DOT":-5.9e-7,"MEAN_MOTION_DDOT":0},{"OBJECT_NAME":"GUOWANG GROUP 20 OBJECT A","OBJECT_ID":"2026-047A","EPOCH":"2026-03-15T00:04:40.359360","MEAN_MOTION":14.05944149,"ECCENTRICITY":0.00091186,"INCLINATION":50.0052,"RA_OF_ASC_NODE":48.8165,"ARG_OF_PERICENTER":270.7651,"MEAN_ANOMALY":89.221,"EPHEMERIS_TYPE":0,"CLASSIFICATION_TYPE":"U","NORAD_CAT_ID":68129,"ELEMENT_SET_NO":999,"REV_AT_EPOCH":31,"BSTAR":8.337594e-6,"MEAN_MOTION_DOT":-1.38e-6,"MEAN_MOTION_DDOT":0},{"OBJECT_NAME":"GUOWANG GROUP 20 OBJECT B","OBJECT_ID":"2026-047B","EPOCH":"2026-03-15T00:04:25.038912","MEAN_MOTION":14.06063658,"ECCENTRICITY":0.00077645,"INCLINATION":50.0042,"RA_OF_ASC_NODE":48.8174,"ARG_OF_PERICENTER":265.9471,"MEAN_ANOMALY":94.0547,"EPHEMERIS_TYPE":0,"CLASSIFICATION_TYPE":"U","NORAD_CAT_ID":68130,"ELEMENT_SET_NO":999,"REV_AT_EPOCH":30,"BSTAR":7.824815e-6,"MEAN_MOTION_DOT":-1.39e-6,"MEAN_MOTION_DDOT":0}]
