HULIANWANG DIGUI-145    
1 67443U 26007J   26069.11936298 -.00000059  00000+0  12980-3 0  9998
2 67443  50.0078  80.9138 0000950 330.3755  29.7067 13.36587384  7618
GUOWANG GROUP 20 OBJECT*
1 68129U 26047A   26074.00324490 -.00000138  00000+0  83376-5 0  9990
2 68129  50.0052  48.8165 0009118 270.7651  89.2210 14.05944149   316
GUOWANG GROUP 20 OBJECT*
1 68130U 26047B   26074.00306758 -.00000139  00000+0  78248-5 0  9992
2 68130  50.0042  48.8174 0007764 265.9471  94.0547 14.06063658   302
